1 28485U 04047A   17347.95665810 +.00000972 +00000-0 +36897-4 0  9999
2 28485 020.5578 317.7806 0011225 350.8890 009.1339 15.03970030715288
